[{"OBJECT_NAME":"STARLINK-34193","OBJECT_ID":"2025-101T","EPOCH":"2026-03-09T04:12:21.490272","MEAN_MOTION":15.27573864,"ECCENTRICITY":0.00016818,"INCLINATION":43.0022,"RA_OF_ASC_NODE":1.1202,"ARG_OF_PERICENTER":295.0137,"MEAN_ANOMALY":65.054,"EPHEMERIS_TYPE":0,"CLASSIFICATION_TYPE":"U","NORAD_CAT_ID":64011,"ELEMENT_SET_NO":999,"REV_AT_EPOCH":4697,"BSTAR":0.0010599137,"MEAN_MOTION_DOT":0.00029014,"MEAN_MOTION_DDOT":0},{"OBJECT_NAME":"CZ-4B R\/B","OBJECT_ID":"2010-051C","EPOCH":"2026-03-09T16:48:37.977120","MEAN_MOTION":15.17426017,"ECCENTRICITY":0.00758037,"INCLINATION":97.7974,"RA_OF_ASC_NODE":110.8647,"ARG_OF_PERICENTER":95.044,"MEAN_ANOMALY":265.9451,"EPHEMERIS_TYPE":0,"CLASSIFICATION_TYPE":"U","NORAD_CAT_ID":37181,"ELEMENT_SET_NO":999,"REV_AT_EPOCH":84355,"BSTAR":0.00029718512,"MEAN_MOTION_DOT":6.328e-5,"MEAN_MOTION_DDOT":0}]
